GLOBALSTAR M045         
1 25676U 99019A   24194.90363409 -.00000070  00000+0  20523-3 0  9990
2 25676  51.9937 192.2830 0000568 281.4326 105.3480 12.27041173151749
GLOBALSTAR M019         
1 25677U 99019B   24195.57740022  .00000041  00000+0  13688-2 0  9995
2 25677  51.9892 296.9067 0000695  41.5529 331.3960 12.13859549144212
GLOBALSTAR M044         
1 25678U 99019C   24195.43227220 -.00000057  00000+0  36750-3 0  9995
2 25678  51.9932 206.2898 0006279 107.0866  43.9755 11.90235061130966
GLOBALSTAR M042         
1 25679U 99019D   24194.98714449 -.00000057  00000+0  32653-3 0  9997
2 25679  52.0022 288.5124 0002343 320.1247 211.3197 12.22064884143855
GLOBALSTAR M025         
1 25770U 99031A   24194.80295263 -.00000070  00000+0 -84745-4 0  9998
2 25770  51.9779 225.4779 0001628 288.1016 242.6870 11.22551218443592
GLOBALSTAR M049         
1 25771U 99031B   24194.86457149 -.00000047  00000+0  64675-3 0  9990
2 25771  51.9847 243.0461 0003111 169.0618 191.0247 11.12106394 79676
GLOBALSTAR M047         
1 25772U 99031C   24194.69398932 -.00000054  00000+0  43752-3 0  9997
2 25772  51.9831 272.8374 0016034  41.1782 319.0231 11.31921118432660
GLOBALSTAR M052         
1 25773U 99031D   24194.84377334 -.00000042  00000+0  79758-3 0  9990
2 25773  51.9896 356.5394 0002146 346.0502 116.4038 11.15051839440658
